CCSDS_OMM_VERS = 2.0
CREATION_DATE  = 
ORIGINATOR     = 

OBJECT_NAME    = ATLAS CENTAUR 2
OBJECT_ID      = 1963-047A
CENTER_NAME    = EARTH
REF_FRAME      = TEME
TIME_SYSTEM    = UTC
MEAN_ELEMENT_THEORY = SGP/SGP4

EPOCH          = 2025-12-26T00:25:23.093760
MEAN_MOTION    = 14.11815886
ECCENTRICITY   = .0548662
INCLINATION    = 30.3526
RA_OF_ASC_NODE = 247.2891
ARG_OF_PERICENTER = 151.1393
MEAN_ANOMALY   = 212.0731

EPHEMERIS_TYPE = 0
CLASSIFICATION_TYPE = U
NORAD_CAT_ID   = 694
ELEMENT_SET_NO = 999
REV_AT_EPOCH   = 12120
BSTAR          = .23277E-3
MEAN_MOTION_DOT = .1998E-4
MEAN_MOTION_DDOT = 0

CCSDS_OMM_VERS = 2.0
CREATION_DATE  = 
ORIGINATOR     = 

OBJECT_NAME    = THOR AGENA D R/B
OBJECT_ID      = 1964-002A
CENTER_NAME    = EARTH
REF_FRAME      = TEME
TIME_SYSTEM    = UTC
MEAN_ELEMENT_THEORY = SGP/SGP4

EPOCH          = 2025-12-25T23:31:01.555104
MEAN_MOTION    = 14.33967097
ECCENTRICITY   = .0033817
INCLINATION    = 99.1220
RA_OF_ASC_NODE = 4.3146
ARG_OF_PERICENTER = 112.4092
MEAN_ANOMALY   = 248.0679

EPHEMERIS_TYPE = 0
CLASSIFICATION_TYPE = U
NORAD_CAT_ID   = 733
ELEMENT_SET_NO = 999
REV_AT_EPOCH   = 22773
BSTAR          = .94068E-4
MEAN_MOTION_DOT = .216E-5
MEAN_MOTION_DDOT = 0

CCSDS_OMM_VERS = 2.0
CREATION_DATE  = 
ORIGINATOR     = 

OBJECT_NAME    = SL-3 R/B
OBJECT_ID      = 1964-053B
CENTER_NAME    = EARTH
REF_FRAME      = TEME
TIME_SYSTEM    = UTC
MEAN_ELEMENT_THEORY = SGP/SGP4

EPOCH          = 2025-12-25T22:01:41.593728
MEAN_MOTION    = 14.61285068
ECCENTRICITY   = .0074977
INCLINATION    = 65.0748
RA_OF_ASC_NODE = 187.5042
ARG_OF_PERICENTER = 316.0115
MEAN_ANOMALY   = 43.5032

EPHEMERIS_TYPE = 0
CLASSIFICATION_TYPE = U
NORAD_CAT_ID   = 877
ELEMENT_SET_NO = 999
REV_AT_EPOCH   = 25601
BSTAR          = .5948E-4
MEAN_MOTION_DOT = .181E-5
MEAN_MOTION_DDOT = 0

CCSDS_OMM_VERS = 2.0
CREATION_DATE  = 
ORIGINATOR     = 

OBJECT_NAME    = SL-8 R/B
OBJECT_ID      = 1967-045B
CENTER_NAME    = EARTH
REF_FRAME      = TEME
TIME_SYSTEM    = UTC
MEAN_ELEMENT_THEORY = SGP/SGP4

EPOCH          = 2025-12-25T19:17:08.742624
MEAN_MOTION    = 14.45550303
ECCENTRICITY   = .00636349
INCLINATION    = 74.0109
RA_OF_ASC_NODE = 126.0689
ARG_OF_PERICENTER = 152.1614
MEAN_ANOMALY   = 208.2974

EPHEMERIS_TYPE = 0
CLASSIFICATION_TYPE = U
NORAD_CAT_ID   = 2802
ELEMENT_SET_NO = 999
REV_AT_EPOCH   = 7834
BSTAR          = .1424936E-3
MEAN_MOTION_DOT = .488E-5
MEAN_MOTION_DDOT = 0

CCSDS_OMM_VERS = 2.0
CREATION_DATE  = 
ORIGINATOR     = 

OBJECT_NAME    = SL-8 R/B
OBJECT_ID      = 1968-040B
CENTER_NAME    = EARTH
REF_FRAME      = TEME
TIME_SYSTEM    = UTC
MEAN_ELEMENT_THEORY = SGP/SGP4

EPOCH          = 2025-12-25T18:09:48.568896
MEAN_MOTION    = 15.02614521
ECCENTRICITY   = .00260708
INCLINATION    = 74.0311
RA_OF_ASC_NODE = 104.6909
ARG_OF_PERICENTER = 304.2171
MEAN_ANOMALY   = 55.6547

EPHEMERIS_TYPE = 0
CLASSIFICATION_TYPE = U
NORAD_CAT_ID   = 3230
ELEMENT_SET_NO = 999
REV_AT_EPOCH   = 7890
BSTAR          = .28795059E-3
MEAN_MOTION_DOT = .3822E-4
MEAN_MOTION_DDOT = 0

CCSDS_OMM_VERS = 2.0
CREATION_DATE  = 
ORIGINATOR     = 

OBJECT_NAME    = OAO 2
OBJECT_ID      = 1968-110A
CENTER_NAME    = EARTH
REF_FRAME      = TEME
TIME_SYSTEM    = UTC
MEAN_ELEMENT_THEORY = SGP/SGP4

EPOCH          = 2025-12-25T14:52:56.055072
MEAN_MOTION    = 14.47251778
ECCENTRICITY   = .0005858
INCLINATION    = 34.9948
RA_OF_ASC_NODE = 318.7552
ARG_OF_PERICENTER = 317.8916
MEAN_ANOMALY   = 42.1325

EPHEMERIS_TYPE = 0
CLASSIFICATION_TYPE = U
NORAD_CAT_ID   = 3597
ELEMENT_SET_NO = 999
REV_AT_EPOCH   = 836
BSTAR          = .80945E-4
MEAN_MOTION_DOT = .281E-5
MEAN_MOTION_DDOT = 0

CCSDS_OMM_VERS = 2.0
CREATION_DATE  = 
ORIGINATOR     = 

OBJECT_NAME    = ISIS 1
OBJECT_ID      = 1969-009A
CENTER_NAME    = EARTH
REF_FRAME      = TEME
TIME_SYSTEM    = UTC
MEAN_ELEMENT_THEORY = SGP/SGP4

EPOCH          = 2025-12-25T10:50:39.092640
MEAN_MOTION    = 11.30360209
ECCENTRICITY   = .1707086
INCLINATION    = 88.4492
RA_OF_ASC_NODE = 163.4057
ARG_OF_PERICENTER = 239.0071
MEAN_ANOMALY   = 103.2334

EPHEMERIS_TYPE = 0
CLASSIFICATION_TYPE = U
NORAD_CAT_ID   = 3669
ELEMENT_SET_NO = 999
REV_AT_EPOCH   = 34014
BSTAR          = .19216E-3
MEAN_MOTION_DOT = .267E-5
MEAN_MOTION_DDOT = 0

CCSDS_OMM_VERS = 2.0
CREATION_DATE  = 
ORIGINATOR     = 

OBJECT_NAME    = SERT 2
OBJECT_ID      = 1970-009A
CENTER_NAME    = EARTH
REF_FRAME      = TEME
TIME_SYSTEM    = UTC
MEAN_ELEMENT_THEORY = SGP/SGP4

EPOCH          = 2025-12-25T20:08:43.193184
MEAN_MOTION    = 13.58719765
ECCENTRICITY   = .00049859
INCLINATION    = 99.2671
RA_OF_ASC_NODE = 302.0099
ARG_OF_PERICENTER = 3.9350
MEAN_ANOMALY   = 50.5085

EPHEMERIS_TYPE = 0
CLASSIFICATION_TYPE = U
NORAD_CAT_ID   = 4327
ELEMENT_SET_NO = 999
REV_AT_EPOCH   = 76986
BSTAR          = .13735342E-3
MEAN_MOTION_DOT = .59E-6
MEAN_MOTION_DDOT = 0

CCSDS_OMM_VERS = 2.0
CREATION_DATE  = 
ORIGINATOR     = 

OBJECT_NAME    = SL-3 R/B
OBJECT_ID      = 1971-028B
CENTER_NAME    = EARTH
REF_FRAME      = TEME
TIME_SYSTEM    = UTC
MEAN_ELEMENT_THEORY = SGP/SGP4

EPOCH          = 2025-12-26T03:01:40.750176
MEAN_MOTION    = 15.55247913
ECCENTRICITY   = .0019069
INCLINATION    = 81.2383
RA_OF_ASC_NODE = 142.4777
ARG_OF_PERICENTER = 192.4559
MEAN_ANOMALY   = 167.6222

EPHEMERIS_TYPE = 0
CLASSIFICATION_TYPE = U
NORAD_CAT_ID   = 5118
ELEMENT_SET_NO = 999
REV_AT_EPOCH   = 97721
BSTAR          = .48586E-3
MEAN_MOTION_DOT = .33245E-3
MEAN_MOTION_DDOT = 0

CCSDS_OMM_VERS = 2.0
CREATION_DATE  = 
ORIGINATOR     = 

OBJECT_NAME    = ASTEX 1
OBJECT_ID      = 1971-089A
CENTER_NAME    = EARTH
REF_FRAME      = TEME
TIME_SYSTEM    = UTC
MEAN_ELEMENT_THEORY = SGP/SGP4

EPOCH          = 2025-12-25T21:07:10.883712
MEAN_MOTION    = 14.50657727
ECCENTRICITY   = .0014668
INCLINATION    = 92.7148
RA_OF_ASC_NODE = 127.8711
ARG_OF_PERICENTER = 342.0189
MEAN_ANOMALY   = 18.0496

EPHEMERIS_TYPE = 0
CLASSIFICATION_TYPE = U
NORAD_CAT_ID   = 5560
ELEMENT_SET_NO = 999
REV_AT_EPOCH   = 85160
BSTAR          = .13998E-3
MEAN_MOTION_DOT = .549E-5
MEAN_MOTION_DDOT = 0

CCSDS_OMM_VERS = 2.0
CREATION_DATE  = 
ORIGINATOR     = 

OBJECT_NAME    = SL-8 R/B
OBJECT_ID      = 1971-119B
CENTER_NAME    = EARTH
REF_FRAME      = TEME
TIME_SYSTEM    = UTC
MEAN_ELEMENT_THEORY = SGP/SGP4

EPOCH          = 2025-12-26T03:11:33.664128
MEAN_MOTION    = 14.36053462
ECCENTRICITY   = .0558287
INCLINATION    = 73.8893
RA_OF_ASC_NODE = 313.0270
ARG_OF_PERICENTER = 294.6048
MEAN_ANOMALY   = 59.7920

EPHEMERIS_TYPE = 0
CLASSIFICATION_TYPE = U
NORAD_CAT_ID   = 5730
ELEMENT_SET_NO = 999
REV_AT_EPOCH   = 64492
BSTAR          = .61419E-3
MEAN_MOTION_DOT = .11818E-3
MEAN_MOTION_DDOT = 0

CCSDS_OMM_VERS = 2.0
CREATION_DATE  = 
ORIGINATOR     = 

OBJECT_NAME    = OAO 3 (COPERNICUS)
OBJECT_ID      = 1972-065A
CENTER_NAME    = EARTH
REF_FRAME      = TEME
TIME_SYSTEM    = UTC
MEAN_ELEMENT_THEORY = SGP/SGP4

EPOCH          = 2025-12-26T00:12:04.115808
MEAN_MOTION    = 14.59917603
ECCENTRICITY   = .0007226
INCLINATION    = 35.0070
RA_OF_ASC_NODE = 357.0817
ARG_OF_PERICENTER = 276.5387
MEAN_ANOMALY   = 118.8797

EPHEMERIS_TYPE = 0
CLASSIFICATION_TYPE = U
NORAD_CAT_ID   = 6153
ELEMENT_SET_NO = 999
REV_AT_EPOCH   = 83542
BSTAR          = .88777E-4
MEAN_MOTION_DOT = .411E-5
MEAN_MOTION_DDOT = 0

