ATLAS CENTAUR 2         
1 00694U 63047A   25360.01762840  .00001998  00000+0  23277-3 0  9993
2 00694  30.3526 247.2891 0548662 151.1393 212.0731 14.11815886121202
THOR AGENA D R/B        
1 00733U 64002A   25359.97987911  .00000216  00000+0  94068-4 0  9999
2 00733  99.1220   4.3146 0033817 112.4092 248.0679 14.33967097227733
SL-3 R/B                
1 00877U 64053B   25359.91784252  .00000181  00000+0  59480-4 0  9991
2 00877  65.0748 187.5042 0074977 316.0115  43.5032 14.61285068256014
SL-8 R/B                
1 02802U 67045B   25359.80357341  .00000488  00000+0  14249-3 0  9991
2 02802  74.0109 126.0689 0063634 152.1614 208.2974 14.45550303 78343
SL-8 R/B                
1 03230U 68040B   25359.75681214  .00003822  00000+0  28795-3 0  9992
2 03230  74.0311 104.6909 0026070 304.2171  55.6547 15.02614521 78901
OAO 2                   
1 03597U 68110A   25359.62009323  .00000281  00000+0  80945-4 0  9999
2 03597  34.9948 318.7552 0005858 317.8916  42.1325 14.47251778  8365
ISIS 1                  
1 03669U 69009A   25359.45184135  .00000267  00000+0  19216-3 0  9999
2 03669  88.4492 163.4057 1707086 239.0071 103.2334 11.30360209340141
SERT 2                  
1 04327U 70009A   25359.83938881  .00000059  00000+0  13735-3 0  9999
2 04327  99.2671 302.0099 0004985   3.9350  50.5085 13.58719765769862
SL-3 R/B                
1 05118U 71028B   25360.12616609  .00033245  00000+0  48586-3 0  9990
2 05118  81.2383 142.4777 0019069 192.4559 167.6222 15.55247913977218
ASTEX 1                 
1 05560U 71089A   25359.87998708  .00000549  00000+0  13998-3 0  9991
2 05560  92.7148 127.8711 0014668 342.0189  18.0496 14.50657727851600
SL-8 R/B                
1 05730U 71119B   25360.13302852  .00011818  00000+0  61419-3 0  9996
2 05730  73.8893 313.0270 0558287 294.6048  59.7920 14.36053462644920
OAO 3 (COPERNICUS)      
1 06153U 72065A   25360.00838097  .00000411  00000+0  88777-4 0  9992
2 06153  35.0070 357.0817 0007226 276.5387 118.8797 14.59917603835426
